{
    "links": {
        "self": "http://www.neowsapp.com/rest/v1/neo/3781402?api_key=iIulBulltgU6a56xZRHN4H3l9WmuAYTsLGpBGhQ2"
    },
    "id": "3781402",
    "neo_reference_id": "3781402",
    "name": "(2017 RL2)",
    "designation": "2017 RL2",
    "nasa_jpl_url": "http://ssd.jpl.nasa.gov/sbdb.cgi?sstr=3781402",
    "absolute_magnitude_h": 26.1,
    "estimated_diameter": {
        "kilometers": {
            "estimated_diameter_min": 0.0160160338,
            "estimated_diameter_max": 0.0358129403
        },
        "meters": {
            "estimated_diameter_min": 16.0160337979,
            "estimated_diameter_max": 35.8129403019
        },
        "miles": {
            "estimated_diameter_min": 0.0099518989,
            "estimated_diameter_max": 0.0222531225
        },
        "feet": {
            "estimated_diameter_min": 52.5460443254,
            "estimated_diameter_max": 117.4965270602
        }
    },
    "is_potentially_hazardous_asteroid": false,
    "close_approach_data": [
        {
            "close_approach_date": "2017-08-26",
            "close_approach_date_full": "2017-Aug-26 12:19",
            "epoch_date_close_approach": 1503749940000,
            "relative_velocity": {
                "kilometers_per_second": "1.558135764",
                "kilometers_per_hour": "5609.2887503387",
                "miles_per_hour": "3485.3938904535"
            },
            "miss_distance": {
                "astronomical": "0.0481219572",
                "lunar": "18.7194413508",
                "kilometers": "7198942.297351164",
                "miles": "4473215.3178235032"
            },
            "orbiting_body": "Earth"
        },
        {
            "close_approach_date": "2060-09-01",
            "close_approach_date_full": "2060-Sep-01 15:48",
            "epoch_date_close_approach": 2861279280000,
            "relative_velocity": {
                "kilometers_per_second": "1.5300710371",
                "kilometers_per_hour": "5508.2557336317",
                "miles_per_hour": "3422.6159029335"
            },
            "miss_distance": {
                "astronomical": "0.0458241632",
                "lunar": "17.8255994848",
                "kilometers": "6855197.209252384",
                "miles": "4259622.0245315392"
            },
            "orbiting_body": "Earth"
        }
    ],
    "orbital_data": {
        "orbit_id": "9",
        "orbit_determination_date": "2017-12-27 06:26:36",
        "first_observation_date": "2017-09-13",
        "last_observation_date": "2017-10-14",
        "data_arc_in_days": 31,
        "observations_used": 44,
        "orbit_uncertainty": "5",
        "minimum_orbit_intersection": ".0472568",
        "jupiter_tisserand_invariant": "5.624",
        "epoch_osculation": "2459000.5",
        "eccentricity": ".04658204341015636",
        "semi_major_axis": "1.106066779405173",
        "inclination": "2.907189805565511",
        "ascending_node_longitude": "350.9387410381589",
        "orbital_period": "424.8840710735463",
        "perihelion_distance": "1.054543928672389",
        "perihelion_argument": "348.9466300150831",
        "aphelion_distance": "1.157589630137956",
        "perihelion_time": "2458849.626558498814",
        "mean_anomaly": "127.8335495213829",
        "mean_motion": ".8472899421491491",
        "equinox": "J2000",
        "orbit_class": {
            "orbit_class_type": "AMO",
            "orbit_class_description": "Near-Earth asteroid orbits similar to that of 1221 Amor",
            "orbit_class_range": "1.017 AU < q (perihelion) < 1.3 AU"
        }
    },
    "is_sentry_object": false
}